[{"OBJECT_NAME":"SNUGLITE-II","OBJECT_ID":"2022-065F","EPOCH":"2026-03-09T22:40:50.457216","MEAN_MOTION":14.64130848,"ECCENTRICITY":0.00069277,"INCLINATION":98.203,"RA_OF_ASC_NODE":214.0486,"ARG_OF_PERICENTER":343.9284,"MEAN_ANOMALY":16.1698,"EPHEMERIS_TYPE":0,"CLASSIFICATION_TYPE":"U","NORAD_CAT_ID":52899,"ELEMENT_SET_NO":999,"REV_AT_EPOCH":19647,"BSTAR":0.00030689626,"MEAN_MOTION_DOT":1.565e-5,"MEAN_MOTION_DDOT":0},{"OBJECT_NAME":"ARIANE 42P DEB","OBJECT_ID":"1992-052P","EPOCH":"2026-03-07T16:35:12.625440","MEAN_MOTION":12.44461156,"ECCENTRICITY":0.11753912,"INCLINATION":65.8137,"RA_OF_ASC_NODE":219.9685,"ARG_OF_PERICENTER":329.2397,"MEAN_ANOMALY":24.4493,"EPHEMERIS_TYPE":0,"CLASSIFICATION_TYPE":"U","NORAD_CAT_ID":47108,"ELEMENT_SET_NO":999,"REV_AT_EPOCH":8658,"BSTAR":0.00068041583,"MEAN_MOTION_DOT":1.294e-5,"MEAN_MOTION_DDOT":0}]
